INTELSAT 904 (IS-904)   
1 27380U 02007A   23265.01577001 -.00000211  00000+0  00000+0 0  9991
2 27380   4.3921  80.8738 0002715  93.5746 162.3715  1.00271022 79066
NSS-7                   
1 27414U 02019A   23264.82264840 -.00000154  00000+0  00000+0 0  9990
2 27414   6.9786  67.3100 0002276 128.3714  80.9102  1.00272958 78544
AQUA                    
1 27424U 02022A   23265.08782927  .00001691  00000+0  37545-3 0  9999
2 27424  98.2937 209.2096 0000848  99.1938 271.2136 14.58335859137482
DIRECTV 5 (TEMPO 1)     
1 27426U 02023A   23264.87638171 -.00000052  00000+0  00000+0 0  9992
2 27426   2.2995  87.6627 0003254  94.0853  24.1348  1.00271759 78109
INTELSAT 905 (IS-905)   
1 27438U 02027A   23264.89342840 -.00000181  00000+0  00000+0 0  9999
2 27438   4.2155  81.5607 0002563  93.0181 123.0887  1.00271931 41343
GALAXY 3C (G-3C)        
1 27445U 02030A   23264.92341105 -.00000149  00000+0  00000+0 0  9992
2 27445   1.1451  89.5704 0002650 140.2103   8.3525  1.00271333 36476
COSMOS 2390             
1 27464U 02036A   23265.16797085  .00000020  00000+0  76171-4 0  9992
2 27464  82.4793 249.5781 0024161 285.0882  74.7525 12.44591416963534
COSMOS 2391             
1 27465U 02036B   23265.04084888  .00000023  00000+0  96123-4 0  9992
2 27465  82.4793 246.5999 0025033 280.4294  79.3965 12.44912921963759
INTELSAT 906 (IS-906)   
1 27513U 02041A   23264.85465929  .00000017  00000+0  00000+0 0  9996
2 27513   3.2412  85.0829 0002926 113.9300 173.2866  1.00273180 76952
INTEGRAL                
1 27540U 02048A   23264.29293196  .00000100  00000+0  00000+0 0  9999
2 27540  85.6424  33.9796 8736982 289.2194 229.2593  0.37575249 22877
TDRS 10                 
1 27566U 02055A   23264.64920958  .00000093  00000+0  00000+0 0  9998
2 27566   9.0535  47.1912 0003539   5.2710  10.3853  1.00271046 76216
LATINSAT B              
1 27606U 02058B   23264.90951089  .00001799  00000+0  28529-3 0  9998
2 27606  64.5553  65.2942 0072712 208.4798 151.2322 14.73595801114719
SAUDISAT 1C (SO-50)     
1 27607U 02058C   23264.89048953  .00002174  00000+0  31423-3 0  9999
2 27607  64.5567 328.3941 0058606 204.2812 155.5529 14.77640348116511
LATINSAT A              
1 27612U 02058H   23264.90435383  .00001629  00000+0  22613-3 0  9999
2 27612  64.5555 174.9521 0029581 199.5020 160.4956 14.81105107119392
NIMIQ 2                 
1 27632U 02062A   23264.61934937 -.00000062  00000+0  00000+0 0  9996
2 27632   7.0835  66.7975 0006633 121.0753 286.1528  1.00272648 75848
CORIOLIS                
1 27640U 03001A   23264.94622180  .00000226  00000+0  12826-3 0  9993
2 27640  98.7172 271.4919 0013628 206.1335 153.9155 14.19307333 72448
SORCE                   
1 27651U 03004A   23265.15018810  .00003832  00000+0  37794-3 0  9998
2 27651  39.9931 154.9339 0018368 131.4812 228.7558 14.92638220122028
NAVSTAR 51 (USA 166)    
1 27663U 03005A   23265.08822678  .00000062  00000+0  00000+0 0  9997
2 27663  55.2376 254.7037 0132428  44.7476  54.7458  2.00564938151269
USA 167                 
1 27691U 03008A   23265.01552934  .00000058  00000+0  00000+0 0  9994
2 27691   8.9531  51.4788 0001475 155.8888  28.5985  1.00272175 21607
NAVSTAR 52 (USA 168)    
1 27704U 03010A   23264.62696208 -.00000079  00000+0  00000+0 0  9995
2 27704  55.1154   4.6738 0249155 319.1354  26.1500  2.00575686150057
USA 169 (MILSTAR-2 4)   
1 27711U 03012A   23264.71369331 -.00000189  00000+0  00000+0 0  9991
2 27711  10.8168  37.2113 0096669 356.2461  15.9842  1.00272033 22937
GALAXY 12 (G-12)        
1 27715U 03013B   23264.86228406 -.00000136  00000+0  00000+0 0  9991
2 27715   4.4246  80.6003 0005469 162.5506 247.0511  0.99246619 42079
ASIASAT 4               
1 27718U 03014A   23264.88174583 -.00000218  00000+0  00000+0 0  9994
2 27718   2.1320  88.2732 0002771  88.5709 288.6327  1.00273403 35283
HELLAS-SAT 2            
1 27811U 03020A   23264.82464991 -.00000078  00000+0  00000+0 0  9998
2 27811   4.8360  79.5221 0006648 111.1631  96.6604  1.00271838 32822
THURAYA-2               
1 27825U 03026A   23264.83313292  .00000132  00000+0  00000+0 0  9997
2 27825   7.3332  34.4894 0002249 131.7361 178.1588  1.00271590 74324
OPTUS C1                
1 27831U 03028B   23264.90535609 -.00000146  00000+0  00000+0 0  9998
2 27831   4.3564  81.2576 0005561 102.1086 298.8507  1.00272519 74309
MOST                    
1 27843U 03031D   23264.99011591  .00000167  00000+0  97382-4 0  9999
2 27843  98.7094 270.8540 0008890 255.3868 104.6324 14.20833506 48791
CUTE-1 (CO-55)          
1 27844U 03031E   23265.01276065  .00000571  00000+0  27326-3 0  9992
2 27844  98.6807 270.8665 0009319 198.7931 161.2904 14.22880755 49535
CUBESAT XI-IV (CO-57)   
1 27848U 03031J   23264.98726676  .00000477  00000+0  23399-3 0  9990
2 27848  98.6842 271.2188 0008944 215.0864 144.9726 14.22377615 49316
GALAXY 23 (G-23)        
1 27854U 03034A   23264.65930420  .00000017  00000+0  00000+0 0  9998
2 27854   0.6041  92.8450 0002825  98.9781 284.9105  1.00272049 73729
SCISAT 1                
1 27858U 03036A   23264.68541965  .00001381  00000+0  19430-3 0  9995
2 27858  73.9353 352.9016 0009020 283.7346  76.2824 14.78415791 83571
COSMOS 2400             
1 27868U 03037A   23264.92160596  .00000033  00000+0  16039-3 0  9996
2 27868  82.4681 236.3724 0022887  81.9710 278.3967 12.45158326913161
COSMOS 2401             
1 27869U 03037B   23265.05568854  .00000034  00000+0  16446-3 0  9994
2 27869  82.4679 233.1005 0023641  78.3908 281.9824 12.45473929913536
USA 170                 
1 27875U 03040A   23264.81821024 -.00000268  00000+0  00000+0 0  9994
2 27875   8.3560  56.5450 0004661 120.4840  75.5857  1.00267484 22940
MOZHAYETS 4 (RS-22)     
1 27939U 03042A   23265.09630115  .00002304  00000+0  40394-3 0  9993
2 27939  98.2571  52.8774 0012323 185.4054 302.4296 14.68696552 68760
GALAXY 13 (HORIZONS-1)  
1 27954U 03044A   23264.65808590  .00000052  00000+0  00000+0 0  9991
2 27954   0.0088 193.0392 0001316 345.9313 291.2013  1.00271916 36555
IRS-P6 (RESOURCESAT-1)  
1 28051U 03046A   23265.07850462  .00000413  00000+0  15818-3 0  9992
2 28051  98.3501 326.9345 0059814  83.6918 337.0896 14.34430391 37196
DMSP 5D-3 F16 (USA 172) 
1 28054U 03048A   23265.11133200  .00000299  00000+0  18159-3 0  9999
2 28054  99.0181 264.1490 0008401  92.5972 349.8200 14.13851147 28250
CHUANGXIN 1 (CX-1)      
1 28058U 03049B   23264.88711000  .00000395  00000+0  12010-3 0  9994
2 28058  98.6292 134.8890 0012332 334.1870  25.8705 14.47440851 51653
YAMAL 202               
1 28089U 03053A   23264.90535609 -.00000076  00000+0  00000+0 0  9994
2 28089   3.7977  82.8394 0005856  95.0058 312.0997  1.00272381 72685
UFO 11 (USA 174)        
1 28117U 03057A   23265.01297383 -.00000095  00000+0  00000+0 0  9998
2 28117   7.6504  37.3600 0003766 121.5034 281.5890  1.00270510 72402
NAVSTAR 53 (USA 175)    
1 28129U 03058A   23264.23722974 -.00000008  00000+0  00000+0 0  9998
2 28129  54.2751  62.4363 0065871 331.2386  28.4203  2.00556212144736
USA 176 (DSP 22)        
1 28158U 04004A   23264.90498823 -.00000213  00000+0  00000+0 0  9997
2 28158  10.6971  32.6301 0001363 222.7917 158.2939  1.00271101 21595
ABS-4 (MOBISAT-1)       
1 28184U 04007A   23264.88372844  .00000044  00000+0  00000+0 0  9991
2 28184   3.4892  83.9408 0005244 117.8889 177.7712  1.00270633 42314
EUTELSAT 7A             
1 28187U 04008A   23265.01378889  .00000107  00000+0  00000+0 0  9996
2 28187   3.2722  83.5662 0003962  94.1630  48.6715  1.00270749 71556
NAVSTAR 54 (USA 177)    
1 28190U 04009A   23264.69771963 -.00000029  00000+0  00000+0 0  9998
2 28190  55.6769 315.7793 0092699 139.4879 194.4769  2.00566740142895
SHIYAN 1 (SY-1)         
1 28220U 04012A   23264.93197964  .00007250  00000+0  49029-3 0  9996
2 28220  97.9880 277.0373 0009255 215.2219 144.8396 15.06832690 59389
AMC-11 (GE-11)          
1 28252U 04017A   23264.87612066 -.00000046  00000+0  00000+0 0  9993
2 28252   0.0401 342.6757 0002018 211.4276  10.6889  1.00271820 70857
INTELSAT 10-02          
1 28358U 04022A   23264.85118942 -.00000007  00000+0  00000+0 0  9995
2 28358   0.0284 260.1744 0000865 265.1828 140.5674  1.00271289 70528
NAVSTAR 55 (USA 178)    
1 28361U 04023A   23264.75290086  .00000024  00000+0  00000+0 0  9997
2 28361  54.3065 127.1898 0146557 272.7968 275.3196  2.00558498140997
APRIZESAT 2             
1 28366U 04025A   23264.81454300  .00000294  00000+0  10598-3 0  9998
2 28366  98.1053 113.8475 0107811  26.8285 333.8423 14.37070391  8055
SAUDICOMSAT 1           
1 28369U 04025D   23264.86768025  .00000822  00000+0  20754-3 0  9990
2 28369  98.5030 236.3308 0032582 200.6683 159.3197 14.53419508 18852
SAUDICOMSAT 2           
1 28370U 04025E   23264.88059189  .00000896  00000+0  24765-3 0  9995
2 28370  98.5951 236.5181 0058107  45.4728 315.1190 14.48230348 15425
SAUDISAT 2              
1 28371U 04025F   23264.86889815  .00000671  00000+0  16609-3 0  9990
2 28371  98.4438 229.4297 0026381 124.7266 235.6421 14.55042393 20384
APRIZESAT 1             
1 28372U 04025G   23264.90504820  .00000725  00000+0  19608-3 0  9998
2 28372  98.5564 236.2314 0044774 313.7611  45.9880 14.50265775 16980
AURA                    
1 28376U 04026A   23264.83442188  .00001681  00000+0  37801-3 0  9990
2 28376  98.2162 207.2303 0001252  93.4817 266.6525 14.57740003 20426
ANIK F2                 
1 28378U 04027A   23264.92896544 -.00000046  00000+0  00000+0 0  9994
2 28378   0.6966  92.4672 0002897  44.9276  86.4774  1.00272235 31243
COSMOS 2407             
1 28380U 04028A   23265.08248819  .00000071  00000+0  56971-4 0  9992
2 28380  82.9563  94.6684 0039539 164.8286 312.6199 13.76167846962644
SHIJIAN-6 01A (SJ-6 01A)
1 28413U 04035A   23264.93074515  .00005586  00000+0  47176-3 0  9992
2 28413  97.6838 283.0515 0009350 315.8306  44.2169 14.98468745 36885
